KUIPER-00053            
1 64513U 25134P   25343.08413118  .00003476  00000+0  48369-3 0  9999
2 64513  51.9013 263.7503 0001730  51.4238 308.6879 14.80026654 26791
KUIPER-00054            
1 64514U 25134Q   25343.15609150 -.00021572  00000+0 -28079-2 0  9995
2 64514  51.8980 258.4154 0005425  18.4878 341.6281 14.79946873 26870
KUIPER-00055            
1 64515U 25134R   25343.11458269  .00017556  00000+0  87235-3 0  9990
2 64515  51.8902 245.5176 0002820 161.7949 198.3131 15.17727835 27053
KUIPER-00056            
1 64516U 25134S   25343.08189405  .00004752  00000+0  65278-3 0  9997
2 64516  51.9026 264.7887 0002193  24.9725 335.1343 14.79877852 26786
KUIPER-00057            
1 64517U 25134T   25343.00634023  .00007752  00000+0  10442-2 0  9996
2 64517  51.8998 272.6136 0009509 339.1745  20.8828 14.79934540 26661
KUIPER-00058            
1 64518U 25134U   25343.01329126  .00007238  00000+0  97796-3 0  9990
2 64518  51.9001 266.5001 0004659  28.4122 331.7093 14.79908655 26755
KUIPER-00059            
1 64519U 25134V   25343.15355678  .00007265  00000+0  97983-3 0  9995
2 64519  51.9000 260.9337 0004219 153.0882 207.0300 14.79981778 26848
KUIPER-00060            
1 64520U 25134W   25343.14947093  .00006454  00000+0  87240-3 0  9998
2 64520  51.9013 261.9640 0003063  66.6843 293.4442 14.80048477 26819
